{
    "links": {
        "self": "http://www.neowsapp.com/rest/v1/neo/54046597?api_key=iIulBulltgU6a56xZRHN4H3l9WmuAYTsLGpBGhQ2"
    },
    "id": "54046597",
    "neo_reference_id": "54046597",
    "name": "(2020 NE1)",
    "designation": "2020 NE1",
    "nasa_jpl_url": "http://ssd.jpl.nasa.gov/sbdb.cgi?sstr=54046597",
    "absolute_magnitude_h": 22.873,
    "estimated_diameter": {
        "kilometers": {
            "estimated_diameter_min": 0.0707872395,
            "estimated_diameter_max": 0.1582850795
        },
        "meters": {
            "estimated_diameter_min": 70.7872395311,
            "estimated_diameter_max": 158.2850795312
        },
        "miles": {
            "estimated_diameter_min": 0.0439851378,
            "estimated_diameter_max": 0.0983537582
        },
        "feet": {
            "estimated_diameter_min": 232.2416069433,
            "estimated_diameter_max": 519.3080203291
        }
    },
    "is_potentially_hazardous_asteroid": false,
    "close_approach_data": [
        {
            "close_approach_date": "2013-07-08",
            "close_approach_date_full": "2013-Jul-08 15:22",
            "epoch_date_close_approach": 1373296920000,
            "relative_velocity": {
                "kilometers_per_second": "15.1400986644",
                "kilometers_per_hour": "54504.3551919833",
                "miles_per_hour": "33866.8867024854"
            },
            "miss_distance": {
                "astronomical": "0.3844003451",
                "lunar": "149.5317342439",
                "kilometers": "57505472.854224937",
                "miles": "35732243.9054486506"
            },
            "orbiting_body": "Earth"
        },
        {
            "close_approach_date": "2020-07-20",
            "close_approach_date_full": "2020-Jul-20 18:14",
            "epoch_date_close_approach": 1595268840000,
            "relative_velocity": {
                "kilometers_per_second": "9.3886267961",
                "kilometers_per_hour": "33799.0564660769",
                "miles_per_hour": "21001.4192802687"
            },
            "miss_distance": {
                "astronomical": "0.1177359705",
                "lunar": "45.7992925245",
                "kilometers": "17613050.409182835",
                "miles": "10944242.033019723"
            },
            "orbiting_body": "Earth"
        },
        {
            "close_approach_date": "2027-07-31",
            "close_approach_date_full": "2027-Jul-31 22:48",
            "epoch_date_close_approach": 1817074080000,
            "relative_velocity": {
                "kilometers_per_second": "8.4551715107",
                "kilometers_per_hour": "30438.617438467",
                "miles_per_hour": "18913.3731522519"
            },
            "miss_distance": {
                "astronomical": "0.1980167727",
                "lunar": "77.0285245803",
                "kilometers": "29622887.420194149",
                "miles": "18406808.7078472962"
            },
            "orbiting_body": "Earth"
        },
        {
            "close_approach_date": "2034-08-09",
            "close_approach_date_full": "2034-Aug-09 03:26",
            "epoch_date_close_approach": 2038706760000,
            "relative_velocity": {
                "kilometers_per_second": "12.7061631132",
                "kilometers_per_hour": "45742.1872076154",
                "miles_per_hour": "28422.4162679764"
            },
            "miss_distance": {
                "astronomical": "0.4690564288",
                "lunar": "182.4629508032",
                "kilometers": "70169842.658286656",
                "miles": "43601518.3985856128"
            },
            "orbiting_body": "Earth"
        }
    ],
    "orbital_data": {
        "orbit_id": "8",
        "orbit_determination_date": "2020-08-08 05:57:05",
        "first_observation_date": "2020-07-14",
        "last_observation_date": "2020-08-08",
        "data_arc_in_days": 25,
        "observations_used": 39,
        "orbit_uncertainty": "7",
        "minimum_orbit_intersection": ".0809265",
        "jupiter_tisserand_invariant": "4.556",
        "epoch_osculation": "2459000.5",
        "eccentricity": ".2614703453159596",
        "semi_major_axis": "1.45852301585768",
        "inclination": "14.62285023309066",
        "ascending_node_longitude": "296.6980799566472",
        "orbital_period": "643.381186156146",
        "perihelion_distance": "1.077162499250097",
        "perihelion_argument": "26.53029299661908",
        "aphelion_distance": "1.839883532465263",
        "perihelion_time": "2459071.781947842939",
        "mean_anomaly": "320.114622908432",
        "mean_motion": ".5595438718853515",
        "equinox": "J2000",
        "orbit_class": {
            "orbit_class_type": "AMO",
            "orbit_class_description": "Near-Earth asteroid orbits similar to that of 1221 Amor",
            "orbit_class_range": "1.017 AU < q (perihelion) < 1.3 AU"
        }
    },
    "is_sentry_object": false
}